start=new Date('2022-01-28T00:00:00.000Z').valueOf();
sats=[{"ELEMENT_SET_NO":"999","ARG_OF_PERICENTER":"82.5639","COUNTRY_CODE":"US","SITE":"AFETR","TLE_LINE1":"1 45081U 20006AP  22027.53355207  .00001489  00000-0  11887-3 0  9999","PERIOD":"95.592","FILE":"3284946","EPHEMERIS_TYPE":"0","CENTER_NAME":"EARTH","TLE_LINE2":"2 45081  53.0550 170.0735 0002080  82.5639 277.5586 15.06402531110339","CLASSIFICATION_TYPE":"U","LAUNCH_DATE":"2020-01-29","ECCENTRICITY":"0.00020800","REF_FRAME":"TEME","OBJECT_ID":"2020-006AP","TIME_SYSTEM":"UTC","OBJECT_TYPE":"PAYLOAD","MEAN_ANOMALY":"277.5586","NORAD_CAT_ID":"45081","BSTAR":"0.00011887000000","INCLINATION":"53.0550","REV_AT_EPOCH":"11033","RCS_SIZE":"LARGE","GP_ID":"194738999","SEMIMAJOR_AXIS":"6925.341","APOAPSIS":"548.646","OBJECT_NAME":"STARLINK-1151","EPOCH":"2022-01-27T12:48:18.898848","DECAY_DATE":null,"MEAN_MOTION_DDOT":"0.0000000000000","RA_OF_ASC_NODE":"170.0735","MEAN_MOTION_DOT":"0.00001489","MEAN_MOTION":"15.06402531","PERIAPSIS":"545.765","MEAN_ELEMENT_THEORY":"SGP4"},{"GP_ID":"194739244","OBJECT_NAME":"STARLINK-1160","APOAPSIS":"548.485","SEMIMAJOR_AXIS":"6925.349","RCS_SIZE":"LARGE","REV_AT_EPOCH":"11033","BSTAR":"0.00013972000000","INCLINATION":"53.0549","PERIAPSIS":"545.943","MEAN_MOTION":"15.06399799","MEAN_ELEMENT_THEORY":"SGP4","MEAN_MOTION_DOT":"0.00001800","DECAY_DATE":null,"MEAN_MOTION_DDOT":"0.0000000000000","RA_OF_ASC_NODE":"169.8032","EPOCH":"2022-01-27T14:07:55.919424","EPHEMERIS_TYPE":"0","FILE":"3284946","TLE_LINE1":"1 45082U 20006AQ  22027.58884166  .00001800  00000-0  13972-3 0  9990","PERIOD":"95.592","ELEMENT_SET_NO":"999","SITE":"AFETR","ARG_OF_PERICENTER":"82.4690","COUNTRY_CODE":"US","OBJECT_TYPE":"PAYLOAD","NORAD_CAT_ID":"45082","MEAN_ANOMALY":"277.6508","REF_FRAME":"TEME","TIME_SYSTEM":"UTC","OBJECT_ID":"2020-006AQ","LAUNCH_DATE":"2020-01-29","CLASSIFICATION_TYPE":"U","ECCENTRICITY":"0.00018350","CENTER_NAME":"EARTH","TLE_LINE2":"2 45082  53.0549 169.8032 0001835  82.4690 277.6508 15.06399799110333"},{"EPOCH":"2022-01-27T14:53:03.799968","DECAY_DATE":null,"MEAN_MOTION_DDOT":"0.0000000000000","RA_OF_ASC_NODE":"189.6786","MEAN_MOTION_DOT":"0.00001816","MEAN_MOTION":"15.06411931","PERIAPSIS":"545.833","MEAN_ELEMENT_THEORY":"SGP4","BSTAR":"0.00014078000000","INCLINATION":"53.0543","REV_AT_EPOCH":"11006","RCS_SIZE":"LARGE","GP_ID":"194740500","SEMIMAJOR_AXIS":"6925.312","OBJECT_NAME":"STARLINK-1190","APOAPSIS":"548.521","CENTER_NAME":"EARTH","TLE_LINE2":"2 45083  53.0543 189.6786 0001941  85.7753 274.3457 15.06411931110068","LAUNCH_DATE":"2020-01-29","ECCENTRICITY":"0.00019410","CLASSIFICATION_TYPE":"U","REF_FRAME":"TEME","OBJECT_ID":"2020-006AR","TIME_SYSTEM":"UTC","OBJECT_TYPE":"PAYLOAD","MEAN_ANOMALY":"274.3457","NORAD_CAT_ID":"45083","ELEMENT_SET_NO":"999","ARG_OF_PERICENTER":"85.7753","COUNTRY_CODE":"US","SITE":"AFETR","TLE_LINE1":"1 45083U 20006AR  22027.62018287  .00001816  00000-0  14078-3 0  9994","PERIOD":"95.591","FILE":"3284946","EPHEMERIS_TYPE":"0"},{"EPOCH":"2022-01-27T14:26:31.675200","DECAY_DATE":null,"RA_OF_ASC_NODE":"149.7544","MEAN_MOTION_DDOT":"0.0000000000000","MEAN_MOTION_DOT":"-0.00001049","MEAN_MOTION":"15.06391301","PERIAPSIS":"546.008","MEAN_ELEMENT_THEORY":"SGP4","BSTAR":"-0.00005151300000","INCLINATION":"53.0546","REV_AT_EPOCH":"11062","RCS_SIZE":"LARGE","GP_ID":"194740743","SEMIMAJOR_AXIS":"6925.375","APOAPSIS":"548.473","OBJECT_NAME":"STARLINK-1173","CENTER_NAME":"EARTH","TLE_LINE2":"2 45084  53.0546 149.7544 0001780  80.6867 279.4324 15.06391301110621","ECCENTRICITY":"0.00017800","LAUNCH_DATE":"2020-01-29","CLASSIFICATION_TYPE":"U","REF_FRAME":"TEME","OBJECT_ID":"2020-006AS","TIME_SYSTEM":"UTC","OBJECT_TYPE":"PAYLOAD","MEAN_ANOMALY":"279.4324","NORAD_CAT_ID":"45084","ELEMENT_SET_NO":"999","COUNTRY_CODE":"US","ARG_OF_PERICENTER":"80.6867","SITE":"AFETR","PERIOD":"95.593","TLE_LINE1":"1 45084U 20006AS  22027.60175550 -.00001049  00000-0 -51513-4 0  9996","FILE":"3284946","EPHEMERIS_TYPE":"0"},{"RCS_SIZE":"LARGE","REV_AT_EPOCH":"11062","BSTAR":"0.00003395700000","INCLINATION":"53.0543","GP_ID":"194739499","OBJECT_NAME":"STARLINK-1179","APOAPSIS":"548.411","SEMIMAJOR_AXIS":"6925.365","DECAY_DATE":null,"RA_OF_ASC_NODE":"149.7593","MEAN_MOTION_DDOT":"0.0000000000000","EPOCH":"2022-01-27T14:21:12.746016","PERIAPSIS":"546.049","MEAN_MOTION":"15.06394624","MEAN_ELEMENT_THEORY":"SGP4","MEAN_MOTION_DOT":"0.00000224","TLE_LINE1":"1 45085U 20006AT  22027.59806419  .00000224  00000-0  33957-4 0  9994","PERIOD":"95.592","ELEMENT_SET_NO":"999","SITE":"AFETR","COUNTRY_CODE":"US","ARG_OF_PERICENTER":"81.4589","FILE":"3284946","EPHEMERIS_TYPE":"0","LAUNCH_DATE":"2020-01-29","CLASSIFICATION_TYPE":"U","ECCENTRICITY":"0.00017050","CENTER_NAME":"EARTH","TLE_LINE2":"2 45085  53.0543 149.7593 0001705  81.4589 278.6593 15.06394624110620","OBJECT_TYPE":"PAYLOAD","NORAD_CAT_ID":"45085","MEAN_ANOMALY":"278.6593","REF_FRAME":"TEME","TIME_SYSTEM":"UTC","OBJECT_ID":"2020-006AT"},{"GP_ID":"194739744","OBJECT_NAME":"STARLINK-1181","APOAPSIS":"537.294","SEMIMAJOR_AXIS":"6914.242","BSTAR":"0.00043727000000","INCLINATION":"53.0011","RCS_SIZE":"LARGE","REV_AT_EPOCH":"11055","MEAN_MOTION_DOT":"0.00006907","PERIAPSIS":"534.921","MEAN_MOTION":"15.10031074","MEAN_ELEMENT_THEORY":"SGP4","EPOCH":"2022-01-27T13:20:30.323328","DECAY_DATE":null,"MEAN_MOTION_DDOT":"0.0000000000000","RA_OF_ASC_NODE":"146.6098","FILE":"3284946","EPHEMERIS_TYPE":"0","ELEMENT_SET_NO":"999","SITE":"AFETR","ARG_OF_PERICENTER":"92.1474","COUNTRY_CODE":"US","TLE_LINE1":"1 45086U 20006AU  22027.55590652  .00006907  00000-0  43727-3 0  9999","PERIOD":"95.362","REF_FRAME":"TEME","TIME_SYSTEM":"UTC","OBJECT_ID":"2020-006AU","OBJECT_TYPE":"PAYLOAD","NORAD_CAT_ID":"45086","MEAN_ANOMALY":"267.9713","CENTER_NAME":"EARTH","TLE_LINE2":"2 45086  53.0011 146.6098 0001716  92.1474 267.9713 15.10031074110550","CLASSIFICATION_TYPE":"U","LAUNCH_DATE":"2020-01-29","ECCENTRICITY":"0.00017160"},{"GP_ID":"194740001","OBJECT_NAME":"STARLINK-1185","APOAPSIS":"548.234","SEMIMAJOR_AXIS":"6925.362","BSTAR":"0.00007979300000","INCLINATION":"53.0548","RCS_SIZE":"LARGE","REV_AT_EPOCH":"11062","MEAN_MOTION_DOT":"0.00000907","PERIAPSIS":"546.220","MEAN_MOTION":"15.06395509","MEAN_ELEMENT_THEORY":"SGP4","EPOCH":"2022-01-27T13:59:58.300224","DECAY_DATE":null,"RA_OF_ASC_NODE":"149.8280","MEAN_MOTION_DDOT":"0.0000000000000","FILE":"3284946","EPHEMERIS_TYPE":"0","ELEMENT_SET_NO":"999","SITE":"AFETR","ARG_OF_PERICENTER":"83.6726","COUNTRY_CODE":"US","PERIOD":"95.592","TLE_LINE1":"1 45087U 20006AV  22027.58331366  .00000907  00000-0  79793-4 0  9995","REF_FRAME":"TEME","TIME_SYSTEM":"UTC","OBJECT_ID":"2020-006AV","OBJECT_TYPE":"PAYLOAD","NORAD_CAT_ID":"45087","MEAN_ANOMALY":"276.4428","CENTER_NAME":"EARTH","TLE_LINE2":"2 45087  53.0548 149.8280 0001454  83.6726 276.4428 15.06395509110625","LAUNCH_DATE":"2020-01-29","CLASSIFICATION_TYPE":"U","ECCENTRICITY":"0.00014540"},{"OBJECT_TYPE":"PAYLOAD","MEAN_ANOMALY":"275.7460","NORAD_CAT_ID":"45088","REF_FRAME":"TEME","OBJECT_ID":"2020-006AW","TIME_SYSTEM":"UTC","ECCENTRICITY":"0.00016080","LAUNCH_DATE":"2020-01-29","CLASSIFICATION_TYPE":"U","CENTER_NAME":"EARTH","TLE_LINE2":"2 45088  53.0548 149.7478 0001608  84.3713 275.7460 15.06407641110628","EPHEMERIS_TYPE":"0","FILE":"3284946","TLE_LINE1":"1 45088U 20006AW  22027.60542337  .00000920  00000-0  80618-4 0  9994","PERIOD":"95.592","ELEMENT_SET_NO":"999","ARG_OF_PERICENTER":"84.3713","COUNTRY_CODE":"US","SITE":"AFETR","MEAN_MOTION":"15.06407641","PERIAPSIS":"546.077","MEAN_ELEMENT_THEORY":"SGP4","MEAN_MOTION_DOT":"0.00000920","DECAY_DATE":null,"RA_OF_ASC_NODE":"149.7478","MEAN_MOTION_DDOT":"0.0000000000000","EPOCH":"2022-01-27T14:31:48.579168","GP_ID":"194740244","SEMIMAJOR_AXIS":"6925.325","OBJECT_NAME":"STARLINK-1183","APOAPSIS":"548.304","REV_AT_EPOCH":"11062","RCS_SIZE":"LARGE","BSTAR":"0.00008061800000","INCLINATION":"53.0548"},{"FILE":"3284946","EPHEMERIS_TYPE":"0","COUNTRY_CODE":"US","ARG_OF_PERICENTER":"89.1348","SITE":"AFETR","ELEMENT_SET_NO":"999","PERIOD":"95.593","TLE_LINE1":"1 45089U 20006AX  22027.60449213 -.00001446  00000-0 -78185-4 0  9996","OBJECT_ID":"2020-006AX","TIME_SYSTEM":"UTC","REF_FRAME":"TEME","MEAN_ANOMALY":"270.9837","NORAD_CAT_ID":"45089","OBJECT_TYPE":"PAYLOAD","TLE_LINE2":"2 45089  53.0590 149.7106 0001707  89.1348 270.9837 15.06393836110637","CENTER_NAME":"EARTH","LAUNCH_DATE":"2020-01-29","CLASSIFICATION_TYPE":"U","ECCENTRICITY":"0.00017070","SEMIMAJOR_AXIS":"6925.367","APOAPSIS":"548.415","OBJECT_NAME":"STARLINK-1136","GP_ID":"194739000","INCLINATION":"53.0590","BSTAR":"-0.00007818500000","REV_AT_EPOCH":"11063","RCS_SIZE":"LARGE","MEAN_MOTION_DOT":"-0.00001446","MEAN_ELEMENT_THEORY":"SGP4","MEAN_MOTION":"15.06393836","PERIAPSIS":"546.050","EPOCH":"2022-01-27T14:30:28.120032","RA_OF_ASC_NODE":"149.7106","MEAN_MOTION_DDOT":"0.0000000000000","DECAY_DATE":null},{"TLE_LINE1":"1 45090U 20006AY  22027.59068814  .00001412  00000-0  11371-3 0  9994","PERIOD":"95.592","ELEMENT_SET_NO":"999","ARG_OF_PERICENTER":"85.3983","COUNTRY_CODE":"US","SITE":"AFETR","EPHEMERIS_TYPE":"0","FILE":"3284946","LAUNCH_DATE":"2020-01-29","CLASSIFICATION_TYPE":"U","ECCENTRICITY":"0.00020310","CENTER_NAME":"EARTH","TLE_LINE2":"2 45090  53.0547 149.8023 0002031  85.3983 274.7238 15.06395526110628","OBJECT_TYPE":"PAYLOAD","MEAN_ANOMALY":"274.7238","NORAD_CAT_ID":"45090","REF_FRAME":"TEME","OBJECT_ID":"2020-006AY","TIME_SYSTEM":"UTC","REV_AT_EPOCH":"11062","RCS_SIZE":"LARGE","BSTAR":"0.00011371000000","INCLINATION":"53.0547","GP_ID":"194739245","SEMIMAJOR_AXIS":"6925.362","OBJECT_NAME":"STARLINK-1176","APOAPSIS":"548.634","DECAY_DATE":null,"MEAN_MOTION_DDOT":"0.0000000000000","RA_OF_ASC_NODE":"149.8023","EPOCH":"2022-01-27T14:10:35.455296","MEAN_MOTION":"15.06395526","PERIAPSIS":"545.821","MEAN_ELEMENT_THEORY":"SGP4","MEAN_MOTION_DOT":"0.00001412"}];
